[{"OBJECT_NAME":"OBJECT C","OBJECT_ID":"2023-104C","EPOCH":"2026-03-09T22:39:44.230752","MEAN_MOTION":15.26846312,"ECCENTRICITY":0.00113074,"INCLINATION":97.273,"RA_OF_ASC_NODE":135.3333,"ARG_OF_PERICENTER":3.876,"MEAN_ANOMALY":356.2565,"EPHEMERIS_TYPE":0,"CLASSIFICATION_TYPE":"U","NORAD_CAT_ID":57426,"ELEMENT_SET_NO":999,"REV_AT_EPOCH":14663,"BSTAR":0.00062618506,"MEAN_MOTION_DOT":0.00016495,"MEAN_MOTION_DDOT":0},{"OBJECT_NAME":"STARLINK-32435","OBJECT_ID":"2024-175S","EPOCH":"2026-03-09T15:19:26.594400","MEAN_MOTION":15.30189251,"ECCENTRICITY":0.0001028,"INCLINATION":53.16,"RA_OF_ASC_NODE":194.431,"ARG_OF_PERICENTER":88.3553,"MEAN_ANOMALY":271.7566,"EPHEMERIS_TYPE":0,"CLASSIFICATION_TYPE":"U","NORAD_CAT_ID":61259,"ELEMENT_SET_NO":999,"REV_AT_EPOCH":8144,"BSTAR":-1.1637e-5,"MEAN_MOTION_DOT":-7.03e-6,"MEAN_MOTION_DDOT":0}]
